{
    "links": {
        "self": "http://www.neowsapp.com/rest/v1/neo/3076609?api_key=iIulBulltgU6a56xZRHN4H3l9WmuAYTsLGpBGhQ2"
    },
    "id": "3076609",
    "neo_reference_id": "3076609",
    "name": "(2001 DS8)",
    "designation": "2001 DS8",
    "nasa_jpl_url": "http://ssd.jpl.nasa.gov/sbdb.cgi?sstr=3076609",
    "absolute_magnitude_h": 22.6,
    "estimated_diameter": {
        "kilometers": {
            "estimated_diameter_min": 0.0802703167,
            "estimated_diameter_max": 0.1794898848
        },
        "meters": {
            "estimated_diameter_min": 80.2703167283,
            "estimated_diameter_max": 179.4898847799
        },
        "miles": {
            "estimated_diameter_min": 0.049877647,
            "estimated_diameter_max": 0.1115298092
        },
        "feet": {
            "estimated_diameter_min": 263.3540659348,
            "estimated_diameter_max": 588.8775935812
        }
    },
    "is_potentially_hazardous_asteroid": false,
    "close_approach_data": [
        {
            "close_approach_date": "1911-01-19",
            "close_approach_date_full": "1911-Jan-19 13:41",
            "epoch_date_close_approach": -1860315540000,
            "relative_velocity": {
                "kilometers_per_second": "5.6491744225",
                "kilometers_per_hour": "20337.0279210526",
                "miles_per_hour": "12636.6382657229"
            },
            "miss_distance": {
                "astronomical": "0.0681019512",
                "lunar": "26.4916590168",
                "kilometers": "10187906.842363944",
                "miles": "6330471.7639686672"
            },
            "orbiting_body": "Earth"
        },
        {
            "close_approach_date": "2001-01-30",
            "close_approach_date_full": "2001-Jan-30 17:07",
            "epoch_date_close_approach": 980874420000,
            "relative_velocity": {
                "kilometers_per_second": "6.3299487456",
                "kilometers_per_hour": "22787.8154840029",
                "miles_per_hour": "14159.462348935"
            },
            "miss_distance": {
                "astronomical": "0.0675450081",
                "lunar": "26.2750081509",
                "kilometers": "10104589.340892747",
                "miles": "6278700.6692120286"
            },
            "orbiting_body": "Earth"
        },
        {
            "close_approach_date": "2019-12-26",
            "close_approach_date_full": "2019-Dec-26 23:17",
            "epoch_date_close_approach": 1577402220000,
            "relative_velocity": {
                "kilometers_per_second": "14.4410049355",
                "kilometers_per_hour": "51987.6177679426",
                "miles_per_hour": "32303.0839403085"
            },
            "miss_distance": {
                "astronomical": "0.0282802682",
                "lunar": "11.0010243298",
                "kilometers": "4230667.885748734",
                "miles": "2628815.1244271692"
            },
            "orbiting_body": "Mars"
        }
    ],
    "orbital_data": {
        "orbit_id": "21",
        "orbit_determination_date": "2017-04-06 09:16:31",
        "first_observation_date": "2001-02-17",
        "last_observation_date": "2001-04-18",
        "data_arc_in_days": 60,
        "observations_used": 61,
        "orbit_uncertainty": "6",
        "minimum_orbit_intersection": ".060196",
        "jupiter_tisserand_invariant": "3.541",
        "epoch_osculation": "2459000.5",
        "eccentricity": ".5144696066486878",
        "semi_major_axis": "2.127830376583197",
        "inclination": "2.418283230847379",
        "ascending_node_longitude": "175.7216922905556",
        "orbital_period": "1133.71510675772",
        "perihelion_distance": "1.03312631972731",
        "perihelion_argument": "303.1570687257819",
        "aphelion_distance": "3.222534433439083",
        "perihelion_time": "2458734.097450563940",
        "mean_anomaly": "84.59349022106387",
        "mean_motion": ".3175400926159957",
        "equinox": "J2000",
        "orbit_class": {
            "orbit_class_type": "AMO",
            "orbit_class_description": "Near-Earth asteroid orbits similar to that of 1221 Amor",
            "orbit_class_range": "1.017 AU < q (perihelion) < 1.3 AU"
        }
    },
    "is_sentry_object": false
}